{"type": "FeatureCollection", "features": [ {"type": "Feature", "properties": {"norad_id": 66052, "name": "HRC MONOBLOCK CAMERA", "group": "stations", "lat": -34.90697263375845, "lon": -10.139303699471432, "alt_km": 406.5993457468867, "timestamp": "2025-12-13T18:50:03.196389+00:00", "meta": {"OBJECT_NAME": "HRC MONOBLOCK CAMERA", "OBJECT_ID": "1998-067XR", "EPOCH": "2025-12-13T07:03:37.221984", "MEAN_MOTION": 15.54192892, "ECCENTRICITY": 0.00031753, "INCLINATION": 51.6292, "RA_OF_ASC_NODE": 138.7434, "ARG_OF_PERICENTER": 186.7911, "MEAN_ANOMALY": 173.3037, "EPHEMERIS_TYPE": 0, "CLASSIFICATION_TYPE": "U", "NORAD_CAT_ID": 66052, "ELEMENT_SET_NO": 999, "REV_AT_EPOCH": 892, "BSTAR": 0.00087487655, "MEAN_MOTION_DOT": 0.00058002, "MEAN_MOTION_DDOT": 0}, "tle": {"line1": "1 66052U 98067XR  25347.29418081  .00058002  00000+0  87488-3 0  9995", "line2": "2 66052  51.6292 138.7434 0003175 186.7911 173.3037 15.54192892  8924"}}, "geometry": {"type": "Point", "coordinates": [-10.139303699471432, -34.90697263375845]}}, {"type": "Feature", "properties": {"norad_id": 66174, "name": "HTV-X1", "group": "stations", "lat": 49.96537930156465, "lon": -113.26946148057846, "alt_km": 412.8022579967046, "timestamp": "2025-12-13T18:50:03.196400+00:00", "meta": {"OBJECT_NAME": "HTV-X1", "OBJECT_ID": "2025-241A", "EPOCH": "2025-12-13T02:54:59.414400", "MEAN_MOTION": 15.49559837, "ECCENTRICITY": 0.00032382, "INCLINATION": 51.6303, "RA_OF_ASC_NODE": 140.5889, "ARG_OF_PERICENTER": 241.9684, "MEAN_ANOMALY": 118.0978, "EPHEMERIS_TYPE": 0, "CLASSIFICATION_TYPE": "U", "NORAD_CAT_ID": 66174, "ELEMENT_SET_NO": 999, "REV_AT_EPOCH": 51, "BSTAR": 0.00029450217, "MEAN_MOTION_DOT": 0.0001613, "MEAN_MOTION_DDOT": 0}, "tle": {"line1": "1 66174U 25241A   25347.12152100  .00016130  00000+0  29450-3 0  9994", "line2": "2 66174  51.6303 140.5889 0003238 241.9684 118.0978 15.49559837   515"}}, "geometry": {"type": "Point", "coordinates": [-113.26946148057846, 49.96537930156465]}}, {"type": "Feature", "properties": {"norad_id": 66515, "name": "SZ-21 MODULE", "group": "stations", "lat": 3.089737686883783, "lon": -173.83346623751956, "alt_km": 379.5730262594843, "timestamp": "2025-12-13T18:50:03.196410+00:00", "meta": {"OBJECT_NAME": "SZ-21 MODULE", "OBJECT_ID": "2025-246C", "EPOCH": "2025-12-13T05:48:56.217312", "MEAN_MOTION": 15.62521016, "ECCENTRICITY": 0.00062862, "INCLINATION": 41.4775, "RA_OF_ASC_NODE": 12.9802, "ARG_OF_PERICENTER": 263.0797, "MEAN_ANOMALY": 96.9328, "EPHEMERIS_TYPE": 0, "CLASSIFICATION_TYPE": "U", "NORAD_CAT_ID": 66515, "ELEMENT_SET_NO": 999, "REV_AT_EPOCH": 452, "BSTAR": 0.00043386364, "MEAN_MOTION_DOT": 0.00039667, "MEAN_MOTION_DDOT": 0}, "tle": {"line1": "1 66515U 25246C   25347.24231733  .00039667  00000+0  43386-3 0  9995", "line2": "2 66515  41.4775  12.9802 0006286 263.0797  96.9328 15.62521016  4528"}}, "geometry": {"type": "Point", "coordinates": [-173.83346623751956, 3.089737686883783]}}, {"type": "Feature", "properties": {"norad_id": 66645, "name": "SHENZHOU-22", "group": "stations", "lat": -39.62180256658294, "lon": -100.00113843176464, "alt_km": 397.45660342708834, "timestamp": "2025-12-13T18:50:03.196421+00:00", "meta": {"OBJECT_NAME": "SHENZHOU-22", "OBJECT_ID": "2025-272A", "EPOCH": "2025-12-13T06:59:15.159552", "MEAN_MOTION": 15.59202655, "ECCENTRICITY": 0.00082357, "INCLINATION": 41.4684, "RA_OF_ASC_NODE": 13.3607, "ARG_OF_PERICENTER": 35.4193, "MEAN_ANOMALY": 324.7191, "EPHEMERIS_TYPE": 0, "CLASSIFICATION_TYPE": "U", "NORAD_CAT_ID": 66645, "ELEMENT_SET_NO": 999, "REV_AT_EPOCH": 26357, "BSTAR": 0.00037863929, "MEAN_MOTION_DOT": 0.00030374, "MEAN_MOTION_DDOT": 0}, "tle": {"line1": "1 66645U 25272A   25347.29114768  .00030374  00000+0  37864-3 0  9991", "line2": "2 66645  41.4684  13.3607 0008235  35.4193 324.7191 15.59202655263579"}}, "geometry": {"type": "Point", "coordinates": [-100.00113843176464, -39.62180256658294]}}, {"type": "Feature", "properties": {"norad_id": 66664, "name": "SOYUZ-MS 28", "group": "stations", "lat": 49.96537852594649, "lon": -113.26945701806116, "alt_km": 412.8022580349061, "timestamp": "2025-12-13T18:50:03.196446+00:00", "meta": {"OBJECT_NAME": "SOYUZ-MS 28", "OBJECT_ID": "2025-275A", "EPOCH": "2025-12-13T02:54:59.414400", "MEAN_MOTION": 15.49559837, "ECCENTRICITY": 0.00032382, "INCLINATION": 51.6303, "RA_OF_ASC_NODE": 140.5889, "ARG_OF_PERICENTER": 241.9684, "MEAN_ANOMALY": 118.0978, "EPHEMERIS_TYPE": 0, "CLASSIFICATION_TYPE": "U", "NORAD_CAT_ID": 66664, "ELEMENT_SET_NO": 999, "REV_AT_EPOCH": 128, "BSTAR": 0.00029450217, "MEAN_MOTION_DOT": 0.0001613, "MEAN_MOTION_DDOT": 0}, "tle": {"line1": "1 66664U 25275A   25347.12152100  .00016130  00000+0  29450-3 0  9995", "line2": "2 66664  51.6303 140.5889 0003238 241.9684 118.0978 15.49559837  1284"}}, "geometry": {"type": "Point", "coordinates": [-113.26945701806116, 49.96537852594649]}}, {"type": "Feature", "properties": {"norad_id": 66906, "name": "1998-067XS", "group": "stations", "lat": 33.11638867193208, "lon": -73.8869537615965, "alt_km": 409.72464487176603, "timestamp": "2025-12-13T18:50:03.196460+00:00", "meta": {"OBJECT_NAME": "1998-067XS", "OBJECT_ID": "1998-067XS", "EPOCH": "2025-12-12T17:30:10.785600", "MEAN_MOTION": 15.50562979, "ECCENTRICITY": 0.00036025, "INCLINATION": 51.6293, "RA_OF_ASC_NODE": 142.4703, "ARG_OF_PERICENTER": 202.1444, "MEAN_ANOMALY": 157.939, "EPHEMERIS_TYPE": 0, "CLASSIFICATION_TYPE": "U", "NORAD_CAT_ID": 66906, "ELEMENT_SET_NO": 999, "REV_AT_EPOCH": 161, "BSTAR": 0.00063717141, "MEAN_MOTION_DOT": 0.00036816, "MEAN_MOTION_DDOT": 0}, "tle": {"line1": "1 66906U 98067XS  25346.72929150  .00036816  00000+0  63717-3 0  9992", "line2": "2 66906  51.6293 142.4703 0003602 202.1444 157.9390 15.50562979  1615"}}, "geometry": {"type": "Point", "coordinates": [-73.8869537615965, 33.11638867193208]}}, {"type": "Feature", "properties": {"norad_id": 66907, "name": "1998-067XT", "group": "stations", "lat": 19.722497190504093, "lon": -59.306466881682766, "alt_km": 409.15244097379036, "timestamp": "2025-12-13T18:50:03.196471+00:00", "meta": {"OBJECT_NAME": "1998-067XT", "OBJECT_ID": "1998-067XT", "EPOCH": "2025-12-12T17:26:16.026432", "MEAN_MOTION": 15.5143678, "ECCENTRICITY": 0.00044769, "INCLINATION": 51.6298, "RA_OF_ASC_NODE": 142.4529, "ARG_OF_PERICENTER": 226.787, "MEAN_ANOMALY": 133.2746, "EPHEMERIS_TYPE": 0, "CLASSIFICATION_TYPE": "U", "NORAD_CAT_ID": 66907, "ELEMENT_SET_NO": 999, "REV_AT_EPOCH": 161, "BSTAR": 0.0013978666, "MEAN_MOTION_DOT": 0.0008442, "MEAN_MOTION_DDOT": 0}, "tle": {"line1": "1 66907U 98067XT  25346.72657438  .00084420  00000+0  13979-2 0  9998", "line2": "2 66907  51.6298 142.4529 0004476 226.7870 133.2746 15.51436780  1615"}}, "geometry": {"type": "Point", "coordinates": [-59.306466881682766, 19.722497190504093]}}, {"type": "Feature", "properties": {"norad_id": 66908, "name": "1998-067XU", "group": "stations", "lat": 18.04847481259398, "lon": -57.7703758749923, "alt_km": 408.9759227526765, "timestamp": "2025-12-13T18:50:03.196482+00:00", "meta": {"OBJECT_NAME": "1998-067XU", "OBJECT_ID": "1998-067XU", "EPOCH": "2025-12-13T07:20:31.203744", "MEAN_MOTION": 15.51634533, "ECCENTRICITY": 0.00044658, "INCLINATION": 51.6298, "RA_OF_ASC_NODE": 139.5715, "ARG_OF_PERICENTER": 229.458, "MEAN_ANOMALY": 130.6021, "EPHEMERIS_TYPE": 0, "CLASSIFICATION_TYPE": "U", "NORAD_CAT_ID": 66908, "ELEMENT_SET_NO": 999, "REV_AT_EPOCH": 170, "BSTAR": 0.0017363682, "MEAN_MOTION_DOT": 0.00106014, "MEAN_MOTION_DDOT": 0}, "tle": {"line1": "1 66908U 98067XU  25347.30591671  .00106014  00000+0  17364-2 0  9996", "line2": "2 66908  51.6298 139.5715 0004465 229.4580 130.6021 15.51634533  1709"}}, "geometry": {"type": "Point", "coordinates": [-57.7703758749923, 18.04847481259398]}}, {"type": "Feature", "properties": {"norad_id": 66909, "name": "SILVERSAT", "group": "stations", "lat": 16.199059192516472, "lon": -56.12228538255662, "alt_km": 408.92046534152087, "timestamp": "2025-12-13T18:50:03.196492+00:00", "meta": {"OBJECT_NAME": "SILVERSAT", "OBJECT_ID": "1998-067XV", "EPOCH": "2025-12-12T22:03:29.727648", "MEAN_MOTION": 15.51661311, "ECCENTRICITY": 0.00044499, "INCLINATION": 51.6297, "RA_OF_ASC_NODE": 141.4878, "ARG_OF_PERICENTER": 228.6613, "MEAN_ANOMALY": 131.3994, "EPHEMERIS_TYPE": 0, "CLASSIFICATION_TYPE": "U", "NORAD_CAT_ID": 66909, "ELEMENT_SET_NO": 999, "REV_AT_EPOCH": 164, "BSTAR": 0.0015570359, "MEAN_MOTION_DOT": 0.00094974, "MEAN_MOTION_DDOT": 0}, "tle": {"line1": "1 66909U 98067XV  25346.91909407  .00094974  00000+0  15570-2 0  9991", "line2": "2 66909  51.6297 141.4878 0004449 228.6613 131.3994 15.51661311  1645"}}, "geometry": {"type": "Point", "coordinates": [-56.12228538255662, 16.199059192516472]}}, {"type": "Feature", "properties": {"norad_id": 66910, "name": "1998-067XW", "group": "stations", "lat": 9.442304810072919, "lon": -50.40456177947501, "alt_km": 408.03967287563046, "timestamp": "2025-12-13T18:50:03.196502+00:00", "meta": {"OBJECT_NAME": "1998-067XW", "OBJECT_ID": "1998-067XW", "EPOCH": "2025-12-12T20:28:35.609952", "MEAN_MOTION": 15.51770354, "ECCENTRICITY": 0.00052525, "INCLINATION": 51.6298, "RA_OF_ASC_NODE": 141.7982, "ARG_OF_PERICENTER": 209.4111, "MEAN_ANOMALY": 150.6584, "EPHEMERIS_TYPE": 0, "CLASSIFICATION_TYPE": "U", "NORAD_CAT_ID": 66910, "ELEMENT_SET_NO": 999, "REV_AT_EPOCH": 163, "BSTAR": 0.001333891, "MEAN_MOTION_DOT": 0.00081487, "MEAN_MOTION_DDOT": 0}, "tle": {"line1": "1 66910U 98067XW  25346.85318993  .00081487  00000+0  13339-2 0  9996", "line2": "2 66910  51.6298 141.7982 0005252 209.4111 150.6584 15.51770354  1636"}}, "geometry": {"type": "Point", "coordinates": [-50.40456177947501, 9.442304810072919]}}]}